[{"OBJECT_NAME":"STARLINK-6037","OBJECT_ID":"2023-064P","EPOCH":"2026-03-09T15:32:27.157920","MEAN_MOTION":14.98331189,"ECCENTRICITY":0.00033047,"INCLINATION":70.0001,"RA_OF_ASC_NODE":144.4061,"ARG_OF_PERICENTER":272.522,"MEAN_ANOMALY":87.5561,"EPHEMERIS_TYPE":0,"CLASSIFICATION_TYPE":"U","NORAD_CAT_ID":56461,"ELEMENT_SET_NO":999,"REV_AT_EPOCH":15524,"BSTAR":-3.4984062e-5,"MEAN_MOTION_DOT":-5.1e-6,"MEAN_MOTION_DDOT":0},{"OBJECT_NAME":"COSMOS 886 DEB","OBJECT_ID":"1976-126S","EPOCH":"2026-03-09T21:56:14.599968","MEAN_MOTION":12.77359426,"ECCENTRICITY":0.10555572,"INCLINATION":65.8446,"RA_OF_ASC_NODE":295.88,"ARG_OF_PERICENTER":53.4024,"MEAN_ANOMALY":315.9492,"EPHEMERIS_TYPE":0,"CLASSIFICATION_TYPE":"U","NORAD_CAT_ID":9721,"ELEMENT_SET_NO":999,"REV_AT_EPOCH":28368,"BSTAR":0.00022738028,"MEAN_MOTION_DOT":5.23e-6,"MEAN_MOTION_DDOT":0}]
